[Satellite]
VERSION=1.1
NAME=FO-98
NICKNAME=FO-98
TLE1=1 43933U 19003B   20156.63639279  .00000620  00000-0  29948-4 0  9998
TLE2=2 43933  97.2310 206.8659 0016155 288.8846  71.0639 15.22098155 76584
STATUS=0
